0 DELTA 1 DEB
1 18463U 76077FA  13281.90191039 -.00000011  00000-0  29563-3 0  6387
2 18463 102.0666 296.5920 0094427 239.9180 239.7011 12.23491374661884
0 DELTA 1 DEB
1 18463U 76077FA  13284.00676488  .00000025  00000-0  62330-3 0  6391
2 18463 102.0663 298.6138 0094473 236.1386 150.6772 12.23491316662144
0 DELTA 1 DEB
1 18463U 76077FA  13286.30664422 -.00000003  00000-0  36791-3 0  6402
2 18463 102.0658 300.8232 0094539 232.0084 200.6525 12.23491840662427
0 DELTA 1 DEB
1 18463U 76077FA  13290.31275591 -.00000031  00000-0  10837-3 0  6418
2 18463 102.0656 304.6704 0094529 224.8063 205.8590 12.23492620662916
0 DELTA 1 DEB
1 18463U 76077FA  13292.54024374 -.00000002  00000-0  37330-3 0  6422
2 18463 102.0657 306.8094 0094570 220.8050 296.9920 12.23492614663182
0 DELTA 1 DEB
1 18463U 76077FA  13295.30025735 -.00000006  00000-0  33535-3 0  6439
2 18463 102.0657 309.4598 0094596 215.8487 213.6716 12.23492777663523
